OBJECT_NAME,OBJECT_ID,EPOCH,MEAN_MOTION,ECCENTRICITY,INCLINATION,RA_OF_ASC_NODE,ARG_OF_PERICENTER,MEAN_ANOMALY,EPHEMERIS_TYPE,CLASSIFICATION_TYPE,NORAD_CAT_ID,ELEMENT_SET_NO,REV_AT_EPOCH,BSTAR,MEAN_MOTION_DOT,MEAN_MOTION_DDOT
ONEWEB-0395,2021-132G,2026-06-17T13:09:51.926688,13.11419419,.00020363,87.8887,20.9954,88.9214,271.2147,0,U,50475,999,21576,-.11587505E-2,-.398E-5,0
ONEWEB-0396,2021-132H,2026-06-17T11:17:52.399968,13.18684916,.00019143,87.9172,335.3980,87.7914,272.3438,0,U,50476,999,22167,.18825869E-4,.2E-6,0
ONEWEB-0397,2021-132J,2026-06-17T11:39:43.738560,13.18685557,.00018409,87.9171,335.3951,84.7177,275.4165,0,U,50477,999,22165,.12906319E-3,.64E-6,0
ONEWEB-0398,2021-132K,2026-06-17T12:23:29.397408,13.11414333,.00019633,87.8892,20.9924,94.2490,265.8862,0,U,50478,999,21565,.54633921E-3,.206E-5,0
ONEWEB-0399,2021-132L,2026-06-17T12:03:58.385376,13.11416018,.00021303,87.8894,21.0060,74.2449,285.8914,0,U,50479,999,21564,.14835595E-2,.539E-5,0
ONEWEB-0400,2021-132M,2026-06-17T11:08:10.114944,13.18684905,.00018839,87.9172,335.3892,97.9781,262.1565,0,U,50480,999,22164,-.16704576E-3,-.53E-6,0
ONEWEB-0401,2021-132N,2026-06-17T12:13:43.264992,13.18685101,.0001653,87.9172,335.3775,89.1653,270.9668,0,U,50481,999,22165,.50239028E-4,.33E-6,0
ONEWEB-0402,2021-132P,2026-06-17T11:20:18.953376,13.18685978,.00015,87.9170,335.3740,80.9745,279.1556,0,U,50482,999,22167,-.24963942E-4,.3E-7,0
ONEWEB-0403,2021-132Q,2026-06-17T11:56:43.478016,13.18685021,.00019754,87.9171,335.3934,90.7160,269.4199,0,U,50483,999,22163,.13545839E-3,.66E-6,0
ONEWEB-0404,2021-132R,2026-06-17T11:37:06.220992,13.11419334,.00021337,87.8889,21.0082,82.4020,277.7350,0,U,50484,999,21573,.20652128E-3,.86E-6,0
ONEWEB-0405,2021-132S,2026-06-17T12:16:09.278400,13.18686502,.00020577,87.9174,335.3753,105.2832,254.8528,0,U,50485,999,22203,-.8362156E-4,-.2E-6,0
ONEWEB-0406,2021-132T,2026-06-17T12:04:00.578208,13.18686073,.00023437,87.9167,335.3933,85.8437,274.2963,0,U,50486,999,22166,.12918202E-3,.64E-6,0
ONEWEB-0407,2021-132U,2026-06-17T11:54:19.259136,13.18682840,.00016599,87.9172,335.3869,92.5006,267.6316,0,U,50487,999,22160,.2390179E-2,.955E-5,0
ONEWEB-0409,2021-132V,2026-06-17T02:25:18.688800,13.11420380,.00021199,87.8893,21.0724,85.8977,274.2393,0,U,50488,999,21557,.33060453E-3,.13E-5,0
ONEWEB-0412,2021-132W,2026-06-17T11:37:17.821920,13.18685398,.00016298,87.9168,335.3973,86.0462,274.0856,0,U,50489,999,22169,.10665093E-3,.55E-6,0
ONEWEB-0413,2021-132X,2026-06-17T11:44:36.482496,13.18686266,.00015432,87.9160,335.3952,91.1478,268.9831,0,U,50490,999,22163,.10695269E-3,.55E-6,0
ONEWEB-0414,2021-132Y,2026-06-17T11:22:44.218560,13.18685338,.00018107,87.9174,335.3799,87.1237,273.0103,0,U,50491,999,22166,-.97814257E-4,-.26E-6,0
ONEWEB-0417,2021-132Z,2026-06-17T11:34:52.470336,13.18685623,.00020787,87.9163,335.3978,90.7530,269.3840,0,U,50492,999,22164,.62425923E-4,.38E-6,0
ONEWEB-0418,2021-132AA,2026-06-17T09:59:57.804864,13.18685094,.00021499,87.9170,335.4109,91.1340,269.0038,0,U,50493,999,22169,.15380802E-3,.74E-6,0
ONEWEB-0419,2021-132AB,2026-06-17T12:16:01.860960,13.18666170,.00021391,87.9171,335.3916,97.0436,263.0940,0,U,50494,999,22162,.85295588E-4,.47E-6,0
ONEWEB-0420,2021-132AC,2026-06-17T11:25:09.412032,13.18686119,.00016727,87.9162,335.4014,96.7379,263.3944,0,U,50495,999,22161,.98589551E-4,.52E-6,0
ONEWEB-0421,2021-132AD,2026-06-17T11:15:26.836704,13.18685005,.00017618,87.9168,335.4004,81.1363,278.9968,0,U,50496,999,22165,-.7761758E-5,.1E-6,0
ONEWEB-0424,2021-132AE,2026-06-17T12:08:52.062432,13.18685678,.00021138,87.9170,335.3911,100.5367,259.6003,0,U,50497,999,22168,.80864382E-4,.45E-6,0
ONEWEB-0426,2021-132AF,2026-06-17T11:09:21.722400,13.18686277,.00022179,87.9170,335.3904,76.1734,283.9645,0,U,50498,999,22162,-.68785835E-3,-.258E-5,0
ONEWEB-0427,2021-132AG,2026-06-17T12:06:26.442144,13.18685234,.00020468,87.9172,335.3714,89.9758,270.1608,0,U,50499,999,22165,.18767221E-3,.87E-6,0
ONEWEB-0429,2021-132AH,2026-06-17T11:47:00.850848,13.18686174,.00017552,87.9164,335.3984,94.5427,265.5906,0,U,50500,999,22162,.63933129E-4,.38E-6,0
ONEWEB-0430,2021-132AJ,2026-06-17T11:30:00.731232,13.18686126,.00018211,87.9163,335.3989,101.2093,258.9244,0,U,50501,999,22166,.81987675E-4,.45E-6,0
ONEWEB-0432,2021-132AK,2026-06-17T10:43:31.867968,13.17154783,.00021948,87.9169,335.3836,108.7159,251.4211,0,U,50502,999,22161,.22558228E-3,.1E-5,0
ONEWEB-0440,2021-132AL,2026-06-17T11:59:09.092256,13.18685172,.00015661,87.9172,335.3912,86.9957,273.1354,0,U,50503,999,22161,.18094032E-3,.84E-6,0
ONEWEB-0450,2021-132AM,2026-06-17T11:49:38.741664,13.18686307,.00017145,87.9161,335.3977,97.5369,262.5958,0,U,50504,999,22164,.17679667E-3,.83E-6,0
